<?xml version="1.0" encoding="UTF-8"?>
<kml xmlns="http://www.opengis.net/kml/2.2">
<Document>
<Placemark>
  <name>Rejów Plaża</name>
  <description>name=Rejów Plaża
amenity=bicycle_rental
operator=Roovee
operator:wikidata=Q60860205</description>
  <Point>
    <coordinates>20.858359896514983,51.08455378712982</coordinates>
  </Point>
</Placemark>
<Placemark>
  <name>Skatepark</name>
  <description>name=Skatepark
amenity=bicycle_rental
operator=Roovee
operator:wikidata=Q60860205</description>
  <Point>
    <coordinates>20.854405641247638,51.099843819660386</coordinates>
  </Point>
</Placemark>
</Document>
</kml>